CALSPHERE 1             
1 00900U 64063C   21289.02853111  .00000301  00000-0  31238-3 0  9995
2 00900  90.1707  36.5275 0027702  41.3595 134.2047 13.73601116837107
